[{"OBJECT_NAME":"STARLINK-31683","OBJECT_ID":"2024-076K","EPOCH":"2026-03-09T03:55:35.106528","MEAN_MOTION":15.27573131,"ECCENTRICITY":0.00011707,"INCLINATION":43.0049,"RA_OF_ASC_NODE":11.8462,"ARG_OF_PERICENTER":281.5522,"MEAN_ANOMALY":78.5198,"EPHEMERIS_TYPE":0,"CLASSIFICATION_TYPE":"U","NORAD_CAT_ID":59573,"ELEMENT_SET_NO":999,"REV_AT_EPOCH":10642,"BSTAR":-2.0415594e-5,"MEAN_MOTION_DOT":-8.24e-6,"MEAN_MOTION_DDOT":0},{"OBJECT_NAME":"SIMSAT 2","OBJECT_ID":"2000-026B","EPOCH":"2026-03-09T20:25:01.673184","MEAN_MOTION":15.29036787,"ECCENTRICITY":0.00037035,"INCLINATION":86.3514,"RA_OF_ASC_NODE":176.4271,"ARG_OF_PERICENTER":287.9875,"MEAN_ANOMALY":72.0969,"EPHEMERIS_TYPE":0,"CLASSIFICATION_TYPE":"U","NORAD_CAT_ID":26366,"ELEMENT_SET_NO":999,"REV_AT_EPOCH":42803,"BSTAR":0.00013465771,"MEAN_MOTION_DOT":3.833e-5,"MEAN_MOTION_DDOT":0}]
